{
  "type": "FeatureCollection",
  "features": [
    {
      "type": "Feature",
      "properties": {
        "norad_id": 39766,
        "name": "ALOS-2",
        "group": "resource",
        "lat": -15.952467022719986,
        "lon": -97.98943544590023,
        "alt_km": 636.0183175602733,
        "timestamp": "2025-12-15T11:38:36.814684+00:00",
        "meta_object_name": "ALOS-2",
        "meta_object_id": "2014-029A",
        "meta_epoch": "2025-12-14T18:31:43.351392",
        "meta_mean_motion": 14.79473192,
        "meta_eccentricity": 0.00013917,
        "meta_inclination": 97.9223,
        "meta_ra_of_asc_node": 83.589,
        "meta_arg_of_pericenter": 96.369,
        "meta_mean_anomaly": 263.768,
        "meta_ephemeris_type": 0,
        "meta_classification_type": "U",
        "meta_norad_cat_id": 39766,
        "meta_element_set_no": 999,
        "meta_rev_at_epoch": 62431,
        "meta_bstar": 0.00030802618,
        "meta_mean_motion_dot": 2.25e-05,
        "meta_mean_motion_ddot": 0,
        "tle_line1": "1 39766U 14029A   25348.77202953  .00002250  00000+0  30803-3 0  9999",
        "tle_line2": "2 39766  97.9223  83.5890 0001391  96.3690 263.7680 14.79473192624310"
      },
      "geometry": {
        "type": "Point",
        "coordinates": [
          -97.98943544590023,
          -15.952467022719986
        ]
      }
    },
    {
      "type": "Feature",
      "properties": {
        "norad_id": 40010,
        "name": "KAZEOSAT 2",
        "group": "resource",
        "lat": 17.468881749637145,
        "lon": 16.050092417887377,
        "alt_km": 609.0515961811461,
        "timestamp": "2025-12-15T11:38:36.814694+00:00",
        "meta_object_name": "KAZEOSAT 2",
        "meta_object_id": "2014-033A",
        "meta_epoch": "2025-12-14T21:58:44.957568",
        "meta_mean_motion": 14.85171782,
        "meta_eccentricity": 0.00078533,
        "meta_inclination": 97.5508,
        "meta_ra_of_asc_node": 193.1179,
        "meta_arg_of_pericenter": 199.1027,
        "meta_mean_anomaly": 160.9895,
        "meta_ephemeris_type": 0,
        "meta_classification_type": "U",
        "meta_norad_cat_id": 40010,
        "meta_element_set_no": 999,
        "meta_rev_at_epoch": 62160,
        "meta_bstar": 0.00010301089,
        "meta_mean_motion_dot": 8.32e-06,
        "meta_mean_motion_ddot": 0,
        "tle_line1": "1 40010U 14033A   25348.91579812  .00000832  00000+0  10301-3 0  9990",
        "tle_line2": "2 40010  97.5508 193.1179 0007853 199.1027 160.9895 14.85171782621601"
      },
      "geometry": {
        "type": "Point",
        "coordinates": [
          16.050092417887377,
          17.468881749637145
        ]
      }
    },
    {
      "type": "Feature",
      "properties": {
        "norad_id": 40011,
        "name": "HODOYOSHI-4",
        "group": "resource",
        "lat": -81.79741074720621,
        "lon": -114.97529576665764,
        "alt_km": 610.856302156003,
        "timestamp": "2025-12-15T11:38:36.814705+00:00",
        "meta_object_name": "HODOYOSHI-4",
        "meta_object_id": "2014-033B",
        "meta_epoch": "2025-12-14T23:07:06.907296",
        "meta_mean_motion": 14.87497059,
        "meta_eccentricity": 0.00232773,
        "meta_inclination": 97.5417,
        "meta_ra_of_asc_node": 177.7379,
        "meta_arg_of_pericenter": 192.8079,
        "meta_mean_anomaly": 167.255,
        "meta_ephemeris_type": 0,
        "meta_classification_type": "U",
        "meta_norad_cat_id": 40011,
        "meta_element_set_no": 999,
        "meta_rev_at_epoch": 62141,
        "meta_bstar": 0.00038039916,
        "meta_mean_motion_dot": 3.413e-05,
        "meta_mean_motion_ddot": 0,
        "tle_line1": "1 40011U 14033B   25348.96327439  .00003413  00000+0  38040-3 0  9990",
        "tle_line2": "2 40011  97.5417 177.7379 0023277 192.8079 167.2550 14.87497059621413"
      },
      "geometry": {
        "type": "Point",
        "coordinates": [
          -114.97529576665764,
          -81.79741074720621
        ]
      }
    },
    {
      "type": "Feature",
      "properties": {
        "norad_id": 40013,
        "name": "DEIMOS-2",
        "group": "resource",
        "lat": 54.820421935783656,
        "lon": 56.122808765769186,
        "alt_km": 582.8400709041525,
        "timestamp": "2025-12-15T11:38:36.814715+00:00",
        "meta_object_name": "DEIMOS-2",
        "meta_object_id": "2014-033D",
        "meta_epoch": "2025-12-14T22:13:12.856800",
        "meta_mean_motion": 14.92982202,
        "meta_eccentricity": 9.308e-05,
        "meta_inclination": 97.6064,
        "meta_ra_of_asc_node": 224.6538,
        "meta_arg_of_pericenter": 110.2638,
        "meta_mean_anomaly": 249.8682,
        "meta_ephemeris_type": 0,
        "meta_classification_type": "U",
        "meta_norad_cat_id": 40013,
        "meta_element_set_no": 999,
        "meta_rev_at_epoch": 61022,
        "meta_bstar": 0.00012380869,
        "meta_mean_motion_dot": 1.232e-05,
        "meta_mean_motion_ddot": 0,
        "tle_line1": "1 40013U 14033D   25348.92584325  .00001232  00000+0  12381-3 0  9994",
        "tle_line2": "2 40013  97.6064 224.6538 0000930 110.2638 249.8682 14.92982202610224"
      },
      "geometry": {
        "type": "Point",
        "coordinates": [
          56.122808765769186,
          54.820421935783656
        ]
      }
    },
    {
      "type": "Feature",
      "properties": {
        "norad_id": 40015,
        "name": "HODOYOSHI-3",
        "group": "resource",
        "lat": 8.199882409254535,
        "lon": -23.69400094412181,
        "alt_km": 607.2812835438808,
        "timestamp": "2025-12-15T11:38:36.814725+00:00",
        "meta_object_name": "HODOYOSHI-3",
        "meta_object_id": "2014-033F",
        "meta_epoch": "2025-12-14T21:55:52.740768",
        "meta_mean_motion": 14.84814917,
        "meta_eccentricity": 0.00319416,
        "meta_inclination": 97.6196,
        "meta_ra_of_asc_node": 154.6544,
        "meta_arg_of_pericenter": 240.4959,
        "meta_mean_anomaly": 119.307,
        "meta_ephemeris_type": 0,
        "meta_classification_type": "U",
        "meta_norad_cat_id": 40015,
        "meta_element_set_no": 999,
        "meta_rev_at_epoch": 62027,
        "meta_bstar": 0.00016088812,
        "meta_mean_motion_dot": 1.325e-05,
        "meta_mean_motion_ddot": 0,
        "tle_line1": "1 40015U 14033F   25348.91380487  .00001325  00000+0  16089-3 0  9990",
        "tle_line2": "2 40015  97.6196 154.6544 0031941 240.4959 119.3070 14.84814917620275"
      },
      "geometry": {
        "type": "Point",
        "coordinates": [
          -23.69400094412181,
          8.199882409254535
        ]
      }
    },
    {
      "type": "Feature",
      "properties": {
        "norad_id": 40053,
        "name": "SPOT 7",
        "group": "resource",
        "lat": 16.86939730985061,
        "lon": 49.02506824078431,
        "alt_km": 690.9377403594181,
        "timestamp": "2025-12-15T11:38:36.814735+00:00",
        "meta_object_name": "SPOT 7",
        "meta_object_id": "2014-034A",
        "meta_epoch": "2025-12-14T22:24:50.051232",
        "meta_mean_motion": 14.60738036,
        "meta_eccentricity": 0.00015748,
        "meta_inclination": 98.0906,
        "meta_ra_of_asc_node": 50.9588,
        "meta_arg_of_pericenter": 87.3945,
        "meta_mean_anomaly": 272.7436,
        "meta_ephemeris_type": 0,
        "meta_classification_type": "U",
        "meta_norad_cat_id": 40053,
        "meta_element_set_no": 999,
        "meta_rev_at_epoch": 61023,
        "meta_bstar": 0.00017571236,
        "meta_mean_motion_dot": 8.11e-06,
        "meta_mean_motion_ddot": 0,
        "tle_line1": "1 40053U 14034A   25348.93391263  .00000811  00000+0  17571-3 0  9995",
        "tle_line2": "2 40053  98.0906  50.9588 0001574  87.3945 272.7436 14.60738036610235"
      },
      "geometry": {
        "type": "Point",
        "coordinates": [
          49.02506824078431,
          16.86939730985061
        ]
      }
    },
    {
      "type": "Feature",
      "properties": {
        "norad_id": 40072,
        "name": "SKYSAT-B",
        "group": "resource",
        "lat": -34.4796338746919,
        "lon": 107.53931776803697,
        "alt_km": 611.2138097857469,
        "timestamp": "2025-12-15T11:38:36.814745+00:00",
        "meta_object_name": "SKYSAT-B",
        "meta_object_id": "2014-037D",
        "meta_epoch": "2025-12-14T20:08:59.406144",
        "meta_mean_motion": 14.87335626,
        "meta_eccentricity": 0.00063174,
        "meta_inclination": 98.3608,
        "meta_ra_of_asc_node": 292.6565,
        "meta_arg_of_pericenter": 143.8455,
        "meta_mean_anomaly": 216.3188,
        "meta_ephemeris_type": 0,
        "meta_classification_type": "U",
        "meta_norad_cat_id": 40072,
        "meta_element_set_no": 999,
        "meta_rev_at_epoch": 61855,
        "meta_bstar": 0.00016130482,
        "meta_mean_motion_dot": 1.396e-05,
        "meta_mean_motion_ddot": 0,
        "tle_line1": "1 40072U 14037D   25348.83957646  .00001396  00000+0  16130-3 0  9990",
        "tle_line2": "2 40072  98.3608 292.6565 0006317 143.8455 216.3188 14.87335626618550"
      },
      "geometry": {
        "type": "Point",
        "coordinates": [
          107.53931776803697,
          -34.4796338746919
        ]
      }
    }
  ]
}